ONEWEB-0674             
1 55833U 23029AP  25043.97157275 -.00000345  00000+0 -96379-3 0  9997
2 55833  87.9017  26.9988 0001515 102.6365 257.4934 13.14503464 95149
ONEWEB-0675             
1 55834U 23029AQ  25044.03729170  .00000006  00000+0 -16613-4 0  9992
2 55834  87.9164  42.2188 0002076  80.0598 280.0769 13.19726008 95117
ONEWEB-0720             
1 55835U 23029AR  25044.02940181  .00000092  00000+0  19728-3 0  9992
2 55835  87.9159  42.2180 0002198  98.1200 262.0182 13.19724699 95011
ONEWEB-0537             
1 56046U 23043A   25043.77416521  .00000043  00000+0  78893-4 0  9995
2 56046  87.9129 326.2949 0001860  69.7368 290.3963 13.16597245 94567
ONEWEB-0538             
1 56047U 23043B   25044.22380928 -.00000177  00000+0 -49702-3 0  9994
2 56047  87.9126 326.2275 0002055  76.4570 283.6790 13.16593758 95541
ONEWEB-0546             
1 56048U 23043C   25043.83116641 -.00000105  00000+0 -30865-3 0  9991
2 56048  87.9129 326.2733 0001790  53.6098 306.5198 13.16595487 94571
ONEWEB-0547             
1 56049U 23043D   25044.09927408  .00000097  00000+0  20276-3 0  9995
2 56049  87.9352 341.4570 0002085  78.9570 281.1798 13.21827608 94529
ONEWEB-0548             
1 56050U 23043E   25043.85649702  .00000048  00000+0  92962-4 0  9996
2 56050  87.9131 326.3095 0001316  89.1342 270.9939 13.16592846 94572
